$$SOE
2461302.500000000, A.D. 2026-Sep-19 00:00:00.0000, -5.296689458962848E+07, 2.919904175247149E+08, -2.452725478869204E+07,
2461309.500000000, A.D. 2026-Sep-26 00:00:00.0000, -6.600615352387637E+07, 2.888042418222377E+08, -2.322212191259877E+07,
2461316.500000000, A.D. 2026-Oct-03 00:00:00.0000, -7.892339595827946E+07, 2.850839321826020E+08, -2.187403054139175E+07,
2461323.500000000, A.D. 2026-Oct-10 00:00:00.0000, -9.169392932093282E+07, 2.808334589409161E+08, -2.048525048531951E+07,
2461330.500000000, A.D. 2026-Oct-17 00:00:00.0000, -1.042931748866828E+08, 2.760581775782440E+08, -1.905817841063069E+07,
2461337.500000000, A.D. 2026-Oct-24 00:00:00.0000, -1.166967661104788E+08, 2.707648313765197E+08, -1.759533061880594E+07,
2461344.500000000, A.D. 2026-Oct-31 00:00:00.0000, -1.288806478174159E+08, 2.649615451317126E+08, -1.609933491679703E+07,
2461351.500000000, A.D. 2026-Nov-07 00:00:00.0000, -1.408211749515534E+08, 2.586578098188086E+08, -1.457292165844162E+07,
2461358.500000000, A.D. 2026-Nov-14 00:00:00.0000, -1.524952096976474E+08, 2.518644590390816E+08, -1.301891397243342E+07,
2461365.500000000, A.D. 2026-Nov-21 00:00:00.0000, -1.638802177967335E+08, 2.445936380089558E+08, -1.144021703903219E+07,
2461372.500000000, A.D. 2026-Nov-28 00:00:00.0000, -1.749543640643613E+08, 2.368587622941089E+08, -9.839806666038245E+06,
2461379.500000000, A.D. 2026-Dec-05 00:00:00.0000, -1.856966025237890E+08, 2.286744659532332E+08, -8.220717652096331E+06,
2461386.500000000, A.D. 2026-Dec-12 00:00:00.0000, -1.960867600916818E+08, 2.200565426518630E+08, -6.586031811428756E+06,
2461393.500000000, A.D. 2026-Dec-19 00:00:00.0000, -2.061056148704243E+08, 2.110218803426829E+08, -4.938865609560117E+06,
2461400.500000000, A.D. 2026-Dec-26 00:00:00.0000, -2.157349684205581E+08, 2.015883893321415E+08, -3.282357591914192E+06,
2461407.500000000, A.D. 2027-Jan-02 00:00:00.0000, -2.249577110589820E+08, 1.917749243094742E+08, -1.619655769499719E+06,
2461414.500000000, A.D. 2027-Jan-09 00:00:00.0000, -2.337578794955673E+08, 1.816012011897270E+08, 4.609490726757050E+04,
2461421.500000000, A.D. 2027-Jan-16 00:00:00.0000, -2.421207063315202E+08, 1.710877096604629E+08, 1.711764864244960E+06,
2461428.500000000, A.D. 2027-Jan-23 00:00:00.0000, -2.500326610756983E+08, 1.602556223188421E+08, 3.374251884488940E+06,
2461435.500000000, A.D. 2027-Jan-30 00:00:00.0000, -2.574814823297425E+08, 1.491267013162363E+08, 5.030492622682646E+06,
2461442.500000000, A.D. 2027-Feb-06 00:00:00.0000, -2.644562006737133E+08, 1.377232038293424E+08, 6.677473541745625E+06,
2461449.500000000, A.D. 2027-Feb-13 00:00:00.0000, -2.709471527771922E+08, 1.260677885375823E+08, 8.312241326238796E+06,
2461456.500000000, A.D. 2027-Feb-20 00:00:00.0000, -2.769459892752514E+08, 1.141834232352314E+08, 9.931912850188620E+06,
2461463.500000000, A.D. 2027-Feb-27 00:00:00.0000, -2.824456752919722E+08, 1.020932912348275E+08, 1.153368424674696E+07,
2461470.500000000, A.D. 2027-Mar-06 00:00:00.0000, -2.874404809490014E+08, 8.982069928404881E+07, 1.311483891111543E+07,
2461477.500000000, A.D. 2027-Mar-13 00:00:00.0000, -2.919259639008580E+08, 7.738898975307405E+07, 1.467275471325584E+07,
2461484.500000000, A.D. 2027-Mar-20 00:00:00.0000, -2.958989455629640E+08, 6.482145688759325E+07, 1.620491042943857E+07,
2461491.500000000, A.D. 2027-Mar-27 00:00:00.0000, -2.993574814276841E+08, 5.214126713302901E+07, 1.770889131719781E+07,
2461498.500000000, A.D. 2027-Apr-03 00:00:00.0000, -3.023008259009902E+08, 3.937138394933307E+07, 1.918239381314333E+07,
2461505.500000000, A.D. 2027-Apr-10 00:00:00.0000, -3.047293922602397E+08, 2.653449751799248E+07, 2.062322936390551E+07,
2461512.500000000, A.D. 2027-Apr-17 00:00:00.0000, -3.066447083833472E+08, 1.365295961803253E+07, 2.202932741110349E+07,
2461519.500000000, A.D. 2027-Apr-24 00:00:00.0000, -3.080493688393074E+08, 7.487238128549522E+05, 2.339873755031442E+07,
2461526.500000000, A.D. 2027-May-01 00:00:00.0000, -3.089469836962335E+08, -1.215670890452711E+07, 2.472963087794194E+07,
2461533.500000000, A.D. 2027-May-08 00:00:00.0000, -3.093421243732882E+08, -2.504233821835968E+07, 2.602030060360612E+07,
2461540.500000000, A.D. 2027-May-15 00:00:00.0000, -3.092402686383134E+08, -3.788770542684200E+07, 2.726916219225445E+07,
2461547.500000000, A.D. 2027-May-22 00:00:00.0000, -3.086477468895234E+08, -5.067292989624030E+07, 2.847475302022494E+07,
2461554.500000000, A.D. 2027-May-29 00:00:00.0000, -3.075716869052916E+08, -6.337874264860078E+07, 2.963573117341962E+07,
2461561.500000000, A.D. 2027-Jun-05 00:00:00.0000, -3.060199566662919E+08, -7.598651413961999E+07, 3.075087361967148E+07,
2461568.500000000, A.D. 2027-Jun-12 00:00:00.0000, -3.040011076909399E+08, -8.847827602406889E+07, 3.181907403068464E+07,
2461575.500000000, A.D. 2027-Jun-19 00:00:00.0000, -3.015243196058634E+08, -1.008367381105259E+08, 3.283934026235349E+07,
2461582.500000000, A.D. 2027-Jun-26 00:00:00.0000, -2.985993460228012E+08, -1.130453010556011E+08, 3.381079150118588E+07,
2461589.500000000, A.D. 2027-Jul-03 00:00:00.0000, -2.952364618921691E+08, -1.250880650903274E+08, 3.473265511861910E+07,
2461596.500000000, A.D. 2027-Jul-10 00:00:00.0000, -2.914464125491180E+08, -1.369498350806921E+08, 3.560426328086215E+07,
2461603.500000000, A.D. 2027-Jul-17 00:00:00.0000, -2.872403646234386E+08, -1.486161222777639E+08, 3.642504935485391E+07,
2461610.500000000, A.D. 2027-Jul-24 00:00:00.0000, -2.826298588236639E+08, -1.600731431372936E+08, 3.719454413475066E+07,
2461617.500000000, A.D. 2027-Jul-31 00:00:00.0000, -2.776267643125988E+08, -1.713078152859385E+08, 3.791237191101056E+07,
2461624.500000000, A.D. 2027-Aug-07 00:00:00.0000, -2.722432349677454E+08, -1.823077497866760E+08, 3.857824653151554E+07,
2461631.500000000, A.D. 2027-Aug-14 00:00:00.0000, -2.664916698873689E+08, -1.930612402508738E+08, 3.919196767811763E+07,
2461638.500000000, A.D. 2027-Aug-21 00:00:00.0000, -2.603846775571057E+08, -2.035572524455305E+08, 3.975341705688604E+07,
2461645.500000000, A.D. 2027-Aug-28 00:00:00.0000, -2.539350402579320E+08, -2.137854134628635E+08, 4.026255431331272E+07,
2461652.500000000, A.D. 2027-Sep-04 00:00:00.0000, -2.471556798854351E+08, -2.237359982005021E+08, 4.071941300962975E+07,
2461659.500000000, A.D. 2027-Sep-11 00:00:00.0000, -2.400596265419309E+08, -2.333999140452901E+08, 4.112409675840405E+07,
2461666.500000000, A.D. 2027-Sep-18 00:00:00.0000, -2.326599897173022E+08, -2.427686846274087E+08, 4.147677546384177E+07,
2461673.500000000, A.D. 2027-Sep-25 00:00:00.0000, -2.249699317683245E+08, -2.518344329243377E+08, 4.177768165819854E+07,
2461680.500000000, A.D. 2027-Oct-02 00:00:00.0000, -2.170026435527094E+08, -2.605898638697393E+08, 4.202710694160950E+07,
2461687.500000000, A.D. 2027-Oct-09 00:00:00.0000, -2.087713221168022E+08, -2.690282466317893E+08, 4.222539853268748E+07,
2461694.500000000, A.D. 2027-Oct-16 00:00:00.0000, -2.002891502828259E+08, -2.771433967563398E+08, 4.237295592542877E+07,
2461701.500000000, A.D. 2027-Oct-23 00:00:00.0000, -1.915692777749531E+08, -2.849296583089092E+08, 4.247022763123712E+07,
2461708.500000000, A.D. 2027-Oct-30 00:00:00.0000, -1.826248034060380E+08, -2.923818855264435E+08, 4.251770802435765E+07,
2461715.500000000, A.D. 2027-Nov-06 00:00:00.0000, -1.734687593889838E+08, -2.994954229629130E+08, 4.251593449316882E+07,
2461722.500000000, A.D. 2027-Nov-13 00:00:00.0000, -1.641140996632394E+08, -3.062660863032039E+08, 4.246548491306034E+07,
2461729.500000000, A.D. 2027-Nov-20 00:00:00.0000, -1.545736892423562E+08, -3.126901461153498E+08, 4.236697499837118E+07,
2461736.500000000, A.D. 2027-Nov-27 00:00:00.0000, -1.448602928741965E+08, -3.187643116467569E+08, 4.222105562815662E+07,
2461743.500000000, A.D. 2027-Dec-04 00:00:00.0000, -1.349865649456679E+08, -3.244857138065132E+08, 4.202841040495415E+07,
2461750.500000000, A.D. 2027-Dec-11 00:00:00.0000, -1.249650410906497E+08, -3.298518883429967E+08, 4.178975341556260E+07,
2461757.500000000, A.D. 2027-Dec-18 00:00:00.0000, -1.148081311357303E+08, -3.348607595929873E+08, 4.150582713718779E+07,
2461764.500000000, A.D. 2027-Dec-25 00:00:00.0000, -1.045281131437509E+08, -3.395106248354915E+08, 4.117740047062157E+07,
2461771.500000000, A.D. 2028-Jan-01 00:00:00.0000, -9.413712842970219E+07, -3.438001392624479E+08, 4.080526689389388E+07,
$$EOE